INTELSAT 602 (IS-602)   
1 20315U 89087A   08106.60908672 -.00000150  00000-0  10000-3 0  6893
2 20315   5.8530  71.5109 0001768 308.7273 200.1373  1.00270527 65437
LEASAT 5                
1 20410U 90002B   08107.79569182 -.00000319  00000-0  10000-3 0  8976
2 20410   7.5633  37.3707 0000392 226.5370 327.8491  1.00269420 52161
INTELSAT 603 (IS-603)   
1 20523U 90021A   08106.07769543 -.00000168  00000-0  10000-3 0  2656
2 20523   5.3267  73.1182 0001534 295.6306 202.8394  1.00270879 59188
SBS-6                   
1 20872U 90091A   08107.12586119 -.00000238  00000-0  00000+0 0  8720
2 20872   0.7185  85.1886 0002000 296.4141 147.3978  1.00269308 52518
INTELSAT 605 (IS-605)   
1 21653U 91055A   08104.62657447 -.00000006  00000-0  10000-3 0  6034
2 21653   3.3511  78.0101 0001202 305.7334 217.9659  1.00271812 61007
INTELSAT 601 (IS-601)   
1 21765U 91075A   08105.64805709  .00000111  00000-0  10000-3 0  5708
2 21765   3.4051  77.7309 0000179 302.7888 103.4816  1.00275224 60127
INTELSAT 701 (IS-701)   
1 22871U 93066A   08105.25524567  .00000035  00000-0  10000-3 0  2056
2 22871   0.0096 252.4700 0003197 134.5765  87.6213  1.00272629 52900
INTELSAT 702 (IS-702)   
1 23124U 94034A   08104.79397185  .00000068  00000-0  10000-3 0   128
2 23124   0.0046 207.3692 0002554 177.1884 158.4463  1.00272335 64818
INTELSAT 2 (IS-2)       
1 23175U 94040A   08106.51904126 -.00000046  00000-0  10000-3 0  2097
2 23175   0.0042 196.2698 0002366 182.4449 181.1691  1.00272433 49749
INTELSAT 704 (IS-704)   
1 23461U 95001A   08106.77771125 -.00000017  00000-0  10000-3 0  7286
2 23461   0.0104 177.6794 0002729 209.1912 163.4036  1.00272815 48616
INTELSAT 705 (IS-705)   
1 23528U 95013A   08106.36616841 -.00000298  00000-0  10000-3 0  7204
2 23528   0.0098  99.0966 0003057 298.2344 248.3581  1.00270875 47782
INTELSAT 706 (IS-706)   
1 23571U 95023A   08106.61362581  .00000098  00000-0  10000-3 0  7353
2 23571   0.0050 187.7189 0003037 202.4224  85.1302  1.00273415 47288
INTELSAT 4 (IS-4)       
1 23636U 95040A   08106.60293462 -.00000073  00000-0  10000-3 0  7796
2 23636   0.0460  84.4391 0002814 288.2602 120.4572  1.00272081 46488
INTELSAT 3R (IS-3R)     
1 23764U 96002A   08104.59623884 -.00000287  00000-0  00000+0 0  4988
2 23764   0.0121 174.1623 0002122 206.6951 352.8020  1.00266414 44886
ANATOLIA 1 (PALAPA C1)  
1 23779U 96006A   08106.74046405  .00000139  00000-0  10000-3 0  9845
2 23779   0.0754  92.3460 0003225 269.9304 146.5088  1.00271485 44643
INTELSAT 707 (IS-707)   
1 23816U 96015A   08106.05593507 -.00000301  00000-0  10000-3 0  6974
2 23816   0.0268  89.2941 0003005 301.8178 139.5981  1.00272388 44282
GALAXY 9 (G-9)          
1 23877U 96033A   08106.43816263 -.00000240  00000-0  10000-3 0  8974
2 23877   0.0070 296.4889 0001462  81.8155 262.3742  1.00270309 43570
INTELSAT 709 (IS-709)   
1 23915U 96035A   08106.58971679 -.00000200  00000-0  10000-3 0  7467
2 23915   0.0077 218.6267 0002951 169.0557 113.8549  1.00270486 43374
INTELSAT 801 (IS-801)   
1 24742U 97009A   08105.77266001 -.00000241  00000-0  10000-3 0  4736
2 24742   0.0263  39.4514 0005456 351.5706  58.9148  1.00271279 40788
GALAXY 25 (G-25)        
1 24812U 97026A   08106.40230174 -.00000155  00000-0  10000-3 0  7474
2 24812   0.0086 193.4480 0002830 190.4157 227.8779  1.00271198 39915
INTELSAT 802 (IS-802)   
1 24846U 97031A   08106.66291285  .00000141  00000-0  10000-3 0  6276
2 24846   0.0080 279.7769 0002072 100.2753  95.6540  1.00272465 39637
INTELSAT 5 (IS-5)       
1 24916U 97046A   08104.97212390  .00000127  00000-0  10000-3 0  5613
2 24916   0.0035 106.2206 0001881 271.7357 200.6747  1.00271079 39060
INTELSAT 805 (IS-805)   
1 25371U 98037A   08106.39274537 -.00000301  00000-0  10000-3 0  2161
2 25371   0.0592  68.9594 0002581 309.3097 271.4922  1.00268285 36013
INTELSAT 7 (IS-7)       
1 25473U 98052A   08107.95115277 -.00000037  00000-0  10000-3 0  5663
2 25473   0.0466  32.2855 0002876 352.2161 232.0010  1.00272529 35113
INTELSAT 8 (IS-8)       
1 25522U 98065A   08106.60401536 -.00000072  00000-0  10000-3 0  4858
2 25522   0.0252 273.0456 0003064 116.6217 197.8809  1.00272073 34675
INTELSAT 6B (IS-6B)     
1 25585U 98075A   08106.64631361 -.00000166  00000-0  00000+0 0  2546
2 25585   0.1561  81.4698 0018312 353.0907 181.5174  0.99156099 34190
GALAXY 26 (G-26)        
1 25626U 99005A   08107.20019639 -.00000176  00000-0  10000-3 0  3151
2 25626   0.0075 185.5256 0003741 201.3262 156.9049  1.00270302 33597
INSAT-2E (APR-1)        
1 25666U 99016A   08106.84825425 -.00000179  00000-0  10000-3 0  8297
2 25666   0.0747  85.1667 0004295 215.9724 291.5560  1.00271067 33219
GALAXY 27 (G-27)        
1 25922U 99052A   08104.60159278  .00000041  00000-0  10000-3 0  3348
2 25922   0.0041 292.3740 0001506  91.9278 265.4058  1.00270807 31315
GALAXY 11 (G-11)        
1 26038U 99071A   08104.27413767 -.00000191  00000-0  10000-3 0  5122
2 26038   0.0244  99.6725 0000243 170.0397 299.7641  1.00270144 30533
GALAXY 10R (G-10R)      
1 26056U 00002A   08106.53053453  .00000010  00000-0  10000-3 0  3724
2 26056   0.0662  59.7022 0002082 305.7934 266.5278  1.00272077 30198
GALAXY 4R (G-4R)        
1 26298U 00020A   08104.63083714 -.00000258  00000-0  00000+0 0  4747
2 26298   1.6002  82.1196 0002072 284.4185 345.8388  1.00268901 29364
INTELSAT 9 (IS-9)       
1 26451U 00043A   08105.31482498 -.00000302  00000-0  10000-3 0   573
2 26451   0.0110 182.3086 0002146 194.8987 240.9484  1.00268471 28289
INTELSAT 12 (IS-12)     
1 26590U 00068A   08107.71696914  .00000125  00000-0  10000-3 0  1089
2 26590   0.0495  65.5249 0002239 312.9150 129.8886  1.00274051 27371
INTELSAT 1R (IS-1R)     
1 26608U 00072A   08103.88422727 -.00000290  00000-0  10000-3 0  9348
2 26608   0.0357  39.5941 0000344 240.4670 194.6382  1.00269589 27185
INTELSAT 10 (IS-10)     
1 26766U 01019A   08106.77935675 -.00000039  00000-0  10000-3 0  1542
2 26766   0.0048 305.6262 0002254  80.2483 167.4592  1.00271693 25384
INTELSAT 901 (IS-901)   
1 26824U 01024A   08106.99485751 -.00000155  00000-0  10000-3 0  2362
2 26824   0.0039 164.6407 0003180 215.7071 164.2998  1.00271792 25138
INTELSAT 902 (IS-902)   
1 26900U 01039A   08106.71708243  .00000018  00000-0  10000-3 0  2027
2 26900   0.0197 353.9046 0002884  31.3065 139.1424  1.00271197 24307
INTELSAT 904 (IS-904)   
1 27380U 02007A   08106.62172611  .00000033  00000-0  10000-3 0  2083
2 27380   0.0126 312.0330 0002976  72.6234 103.2935  1.00273380 22552
INTELSAT 903 (IS-903)   
1 27403U 02016A   08106.17864061 -.00000255  00000-0  00000+0 0   772
2 27403   0.0272 355.5162 0002688  52.4985 185.4486  1.00268400 22206
INTELSAT 905 (IS-905)   
1 27438U 02027A   08103.08280547 -.00000199  00000-0  10000-3 0  9603
2 27438   0.0103 355.7523 0002860  19.0049 191.2000  1.00270611 21496
GALAXY 3C (G-3C)        
1 27445U 02030A   08104.43514971 -.00000168  00000-0  10000-3 0  8791
2 27445   0.0430  43.5772 0000437 216.4233   3.5676  1.00270980 21382
INTELSAT 906 (IS-906)   
1 27513U 02041A   08106.94148461  .00000000  00000-0  10000-3 0  9980
2 27513   0.0070 120.7209 0002591 263.9844 222.8253  1.00272252 20581
INTELSAT 907 (IS-907)   
1 27683U 03007A   08103.03875676 -.00000217  00000-0  10000-3 0  6442
2 27683   0.0100 198.7037 0003104 194.7512 153.5878  1.00270340 18903
GALAXY 12 (G-12)        
1 27715U 03013B   08107.61298685  .00000025  00000-0  10000-3 0  9182
2 27715   0.0738  50.5666 0001036  16.9698 233.1553  1.00274197 18461
GALAXY 23 (G-23)        
1 27854U 03034A   08105.48778777 -.00000004  00000-0  10000-3 0  8049
2 27854   0.0115 285.3892 0002700  97.9919 234.2368  1.00272713 17206
GALAXY 13 (HORIZONS-1)  
1 27954U 03044A   08107.24928538  .00000034  00000-0  10000-3 0  7242
2 27954   0.0071 183.4778 0001539 220.4050 123.6237  1.00273252 16706
INTELSAT 10-02          
1 28358U 04022A   08104.91984814 -.00000028  00000-0  00000+0 0  5650
2 28358   0.0116 204.6002 0001033 119.7284 208.2930  1.00272169 14062
GALAXY 28 (G-28)        
1 28702U 05022A   08106.47440944 -.00000200  00000-0  10000-3 0  4700
2 28702   0.0201 162.3364 0003261 199.1212 284.2843  1.00269730 10343
GALAXY 14 (G-14)        
1 28790U 05030A   08106.55351938  .00000021  00000-0  10000-3 0  5137
2 28790   0.0713  60.6203 0002395 318.1930 259.5156  1.00273235  9768
GALAXY 15 (G-15)        
1 28884U 05041A   08107.52114875  .00000066  00000-0  10000-3 0  4259
2 28884   0.0643  64.5389 0002331 301.6786 253.4213  1.00273124  9201
GALAXY 16 (G-16)        
1 29236U 06023A   08104.34119302 -.00000144  00000-0  10000-3 0  3122
2 29236   0.0043 274.1502 0002937 103.0399 208.5021  1.00271147  6690
GALAXY 17 (G-17)        
1 31307U 07016B   08107.47808483 -.00000081  00000-0  10000-3 0  1835
2 31307   0.0612  20.9655 0003163 314.0704 300.3939  0.99986782  3530
INTELSAT 11 (IS-11)     
1 32253U 07044B   08104.60124813 -.00000286  00000-0  00000+0 0   894
2 32253   0.0210 145.3428 0002164 242.3749 347.8956  1.00274301  1967
HORIZONS 2 (H-2)        
1 32388U 07063B   08105.20772961 -.00000270  00000-0  00000+0 0   763
2 32388   0.0288  96.3936 0002362 302.5795 164.4971  1.00271068  1316
